IRIDIUM 7               
1 24793U 97020B   25310.19040429  .00000562  00000+0  18646-3 0  9993
2 24793  86.3926 117.4286 0002203  81.1966 278.9480 14.36055383492278
IRIDIUM 5               
1 24795U 97020D   25310.20743604  .00006746  00000+0  53577-3 0  9994
2 24795  86.3923  18.1601 0104788 349.2941  10.6056 14.95999690506681
IRIDIUM 4               
1 24796U 97020E   25310.22409349  .00000591  00000+0  19290-3 0  9998
2 24796  86.3921 114.1958 0002187  87.1945 272.9503 14.36958960492868
IRIDIUM 914             
1 24836U 97030A   25310.24588460  .00000642  00000+0  19364-3 0  9997
2 24836  86.3905 122.3720 0003655  97.9886 262.1728 14.41009305627582
IRIDIUM 16              
1 24841U 97030F   25310.28035993  .00000571  00000+0  17934-3 0  9997
2 24841  86.4031 145.6390 0001881  23.1121 337.0162 14.38832673487432
IRIDIUM 911             
1 24842U 97030G   25310.08588789  .00000678  00000+0  17782-3 0  9991
2 24842  86.4451 144.3357 0013834 353.4578   6.6442 14.47820345495616
IRIDIUM 17              
1 24870U 97034B   25310.14538826  .00000531  00000+0  16941-3 0  9994
2 24870  86.3999 175.1132 0000480  68.8001 291.3248 14.37973459483985
IRIDIUM 920             
1 24871U 97034C   25310.10123682  .00000502  00000+0  14809-3 0  9990
2 24871  86.3984 154.0534 0010861 344.0443  16.0413 14.41674124487022
